{
  "type": "FeatureCollection",
  "features": [
    {
      "type": "Feature",
      "properties": {
        "norad_id": 30250,
        "name": "FENGYUN 1C DEB",
        "group": "fengyun-1c-debris",
        "lat": -80.01241802717094,
        "lon": 31.07900467508993,
        "alt_km": 850.651057117786,
        "timestamp": "2025-12-03T17:47:50.992536+00:00",
        "meta_object_name": "FENGYUN 1C DEB",
        "meta_object_id": "1999-025XK",
        "meta_epoch": "2025-12-03T06:15:45.132192",
        "meta_mean_motion": 14.01606292,
        "meta_eccentricity": 0.0068657,
        "meta_inclination": 98.753,
        "meta_ra_of_asc_node": 329.5903,
        "meta_arg_of_pericenter": 250.1568,
        "meta_mean_anomaly": 120.549,
        "meta_ephemeris_type": 0,
        "meta_classification_type": "U",
        "meta_norad_cat_id": 30250,
        "meta_element_set_no": 999,
        "meta_rev_at_epoch": 96359,
        "meta_bstar": 0.00064005,
        "meta_mean_motion_dot": 9.47e-06,
        "meta_mean_motion_ddot": 0,
        "tle_line1": "1 30250U 99025XK  25337.26093903  .00000947  00000+0  64005-3 0  9994",
        "tle_line2": "2 30250  98.7530 329.5903 0068657 250.1568 120.5490 14.01606292963598"
      },
      "geometry": {
        "type": "Point",
        "coordinates": [
          31.07900467508993,
          -80.01241802717094
        ]
      }
    },
    {
      "type": "Feature",
      "properties": {
        "norad_id": 30251,
        "name": "FENGYUN 1C DEB",
        "group": "fengyun-1c-debris",
        "lat": 15.312293019620581,
        "lon": -1.7816904781455987,
        "alt_km": 831.4678096457319,
        "timestamp": "2025-12-03T17:47:50.992547+00:00",
        "meta_object_name": "FENGYUN 1C DEB",
        "meta_object_id": "1999-025XL",
        "meta_epoch": "2025-12-03T12:07:47.269344",
        "meta_mean_motion": 14.29267713,
        "meta_eccentricity": 0.0052104,
        "meta_inclination": 99.0494,
        "meta_ra_of_asc_node": 175.4723,
        "meta_arg_of_pericenter": 356.9781,
        "meta_mean_anomaly": 32.8615,
        "meta_ephemeris_type": 0,
        "meta_classification_type": "U",
        "meta_norad_cat_id": 30251,
        "meta_element_set_no": 999,
        "meta_rev_at_epoch": 98010,
        "meta_bstar": 0.00067836,
        "meta_mean_motion_dot": 1.703e-05,
        "meta_mean_motion_ddot": 0,
        "tle_line1": "1 30251U 99025XL  25337.50540821  .00001703  00000+0  67836-3 0  9994",
        "tle_line2": "2 30251  99.0494 175.4723 0052104 356.9781  32.8615 14.29267713980103"
      },
      "geometry": {
        "type": "Point",
        "coordinates": [
          -1.7816904781455987,
          15.312293019620581
        ]
      }
    },
    {
      "type": "Feature",
      "properties": {
        "norad_id": 30252,
        "name": "FENGYUN 1C DEB",
        "group": "fengyun-1c-debris",
        "lat": -55.40178097341014,
        "lon": 5.928635538752003,
        "alt_km": 828.9669057115661,
        "timestamp": "2025-12-03T17:47:50.992556+00:00",
        "meta_object_name": "FENGYUN 1C DEB",
        "meta_object_id": "1999-025XM",
        "meta_epoch": "2025-12-03T01:20:02.285664",
        "meta_mean_motion": 14.09684476,
        "meta_eccentricity": 0.00657443,
        "meta_inclination": 98.7439,
        "meta_ra_of_asc_node": 352.3706,
        "meta_arg_of_pericenter": 269.3418,
        "meta_mean_anomaly": 154.574,
        "meta_ephemeris_type": 0,
        "meta_classification_type": "U",
        "meta_norad_cat_id": 30252,
        "meta_element_set_no": 999,
        "meta_rev_at_epoch": 96829,
        "meta_bstar": 0.00065160232,
        "meta_mean_motion_dot": 1.122e-05,
        "meta_mean_motion_ddot": 0,
        "tle_line1": "1 30252U 99025XM  25337.05558201  .00001122  00000+0  65160-3 0  9999",
        "tle_line2": "2 30252  98.7439 352.3706 0065744 269.3418 154.5740 14.09684476968298"
      },
      "geometry": {
        "type": "Point",
        "coordinates": [
          5.928635538752003,
          -55.40178097341014
        ]
      }
    },
    {
      "type": "Feature",
      "properties": {
        "norad_id": 30253,
        "name": "FENGYUN 1C DEB",
        "group": "fengyun-1c-debris",
        "lat": -20.21083301558796,
        "lon": -116.68710618435668,
        "alt_km": 1107.470815747417,
        "timestamp": "2025-12-03T17:47:50.992566+00:00",
        "meta_object_name": "FENGYUN 1C DEB",
        "meta_object_id": "1999-025XN",
        "meta_epoch": "2025-12-03T04:44:36.591072",
        "meta_mean_motion": 13.7312768,
        "meta_eccentricity": 0.0222235,
        "meta_inclination": 98.753,
        "meta_ra_of_asc_node": 66.0664,
        "meta_arg_of_pericenter": 66.7465,
        "meta_mean_anomaly": 324.5064,
        "meta_ephemeris_type": 0,
        "meta_classification_type": "U",
        "meta_norad_cat_id": 30253,
        "meta_element_set_no": 999,
        "meta_rev_at_epoch": 93883,
        "meta_bstar": 0.0023152697,
        "meta_mean_motion_dot": 2.521e-05,
        "meta_mean_motion_ddot": 0,
        "tle_line1": "1 30253U 99025XN  25337.19764573  .00002521  00000+0  23153-2 0  9995",
        "tle_line2": "2 30253  98.7530  66.0664 0222235  66.7465 324.5064 13.73127680938838"
      },
      "geometry": {
        "type": "Point",
        "coordinates": [
          -116.68710618435668,
          -20.21083301558796
        ]
      }
    },
    {
      "type": "Feature",
      "properties": {
        "norad_id": 30257,
        "name": "FENGYUN 1C DEB",
        "group": "fengyun-1c-debris",
        "lat": -56.774573838783816,
        "lon": -9.843582805894611,
        "alt_km": 910.4336021413192,
        "timestamp": "2025-12-03T17:47:50.992576+00:00",
        "meta_object_name": "FENGYUN 1C DEB",
        "meta_object_id": "1999-025XS",
        "meta_epoch": "2025-12-03T06:15:03.233376",
        "meta_mean_motion": 14.09716288,
        "meta_eccentricity": 0.0059511,
        "meta_inclination": 98.7495,
        "meta_ra_of_asc_node": 336.0905,
        "meta_arg_of_pericenter": 125.6737,
        "meta_mean_anomaly": 256.295,
        "meta_ephemeris_type": 0,
        "meta_classification_type": "U",
        "meta_norad_cat_id": 30257,
        "meta_element_set_no": 999,
        "meta_rev_at_epoch": 97084,
        "meta_bstar": 0.00013843,
        "meta_mean_motion_dot": 2.05e-06,
        "meta_mean_motion_ddot": 0,
        "tle_line1": "1 30257U 99025XS  25337.26045409  .00000205  00000+0  13843-3 0  9990",
        "tle_line2": "2 30257  98.7495 336.0905 0059511 125.6737 256.2950 14.09716288970842"
      },
      "geometry": {
        "type": "Point",
        "coordinates": [
          -9.843582805894611,
          -56.774573838783816
        ]
      }
    },
    {
      "type": "Feature",
      "properties": {
        "norad_id": 30259,
        "name": "FENGYUN 1C DEB",
        "group": "fengyun-1c-debris",
        "lat": 76.28510387286174,
        "lon": 149.8695900997038,
        "alt_km": 851.033040094756,
        "timestamp": "2025-12-03T17:47:50.992597+00:00",
        "meta_object_name": "FENGYUN 1C DEB",
        "meta_object_id": "1999-025XU",
        "meta_epoch": "2025-12-03T12:43:52.961376",
        "meta_mean_motion": 14.51425689,
        "meta_eccentricity": 0.0242378,
        "meta_inclination": 98.7622,
        "meta_ra_of_asc_node": 188.8457,
        "meta_arg_of_pericenter": 296.3317,
        "meta_mean_anomaly": 119.1076,
        "meta_ephemeris_type": 0,
        "meta_classification_type": "U",
        "meta_norad_cat_id": 30259,
        "meta_element_set_no": 999,
        "meta_rev_at_epoch": 99341,
        "meta_bstar": 0.0007297,
        "meta_mean_motion_dot": 4.208e-05,
        "meta_mean_motion_ddot": 0,
        "tle_line1": "1 30259U 99025XU  25337.53047409  .00004208  00000+0  72970-3 0  9997",
        "tle_line2": "2 30259  98.7622 188.8457 0242378 296.3317 119.1076 14.51425689993419"
      },
      "geometry": {
        "type": "Point",
        "coordinates": [
          149.8695900997038,
          76.28510387286174
        ]
      }
    },
    {
      "type": "Feature",
      "properties": {
        "norad_id": 30261,
        "name": "FENGYUN 1C DEB",
        "group": "fengyun-1c-debris",
        "lat": 18.281235935513415,
        "lon": 16.33089713722303,
        "alt_km": 218.6264564677931,
        "timestamp": "2025-12-03T17:47:50.992608+00:00",
        "meta_object_name": "FENGYUN 1C DEB",
        "meta_object_id": "1999-025XW",
        "meta_epoch": "2025-12-03T01:23:37.059648",
        "meta_mean_motion": 16.15806164,
        "meta_eccentricity": 0.00107077,
        "meta_inclination": 98.7304,
        "meta_ra_of_asc_node": 18.3274,
        "meta_arg_of_pericenter": 299.2872,
        "meta_mean_anomaly": 60.734,
        "meta_ephemeris_type": 0,
        "meta_classification_type": "U",
        "meta_norad_cat_id": 30261,
        "meta_element_set_no": 999,
        "meta_rev_at_epoch": 2217,
        "meta_bstar": 0.0020356547,
        "meta_mean_motion_dot": 0.02409442,
        "meta_mean_motion_ddot": 0.0089599209,
        "tle_line1": "1 30261U 99025XW  25337.05806782  .02409442  89599-2  20357-2 0  9999",
        "tle_line2": "2 30261  98.7304  18.3274 0010707 299.2872  60.7340 16.15806164 22174"
      },
      "geometry": {
        "type": "Point",
        "coordinates": [
          16.33089713722303,
          18.281235935513415
        ]
      }
    }
  ]
}